NORAD_CAT_ID,OBJECT_NAME,OBJECT_TYPE,EPOCH,MEAN_MOTION,ECCENTRICITY,INCLINATION,RA_OF_ASC_NODE,ARG_OF_PERICENTER,MEAN_ANOMALY,BSTAR,MEAN_MOTION_DOT,MEAN_MOTION_DDOT,TLE_LINE0,TLE_LINE1,TLE_LINE2,SEMIMAJOR_AXIS,PERIOD,APOGEE,PERIGEE,DECAYED
56477.0,STARLINK-5534,PAYLOAD,2024-03-08 13:12:59,14.98343511,0.0002935,70.0002,167.843,266.6727,93.4096,9.6135e-05,1.055e-05,0.0,0 STARLINK-5534,1 56477U 23064AF  24068.55068961  .00001055  00000-0  96135-4 0  9993,2 56477  70.0002 167.8430 0002935 266.6727  93.4096 14.98343511 46587,6950.151,96.106,574.056,569.976,0.0
56477.0,STARLINK-5534,PAYLOAD,2024-03-09 11:38:53,14.98326277,0.000281,70.0008,165.487,269.3104,90.7733,1.4295e-05,7.8e-07,0.0,0 STARLINK-5534,1 56477U 23064AF  24069.48534026  .00000078  00000-0  14295-4 0  9997,2 56477  70.0008 165.4870 0002810 269.3104  90.7733 14.98326277 46720,6950.204,96.107,574.022,570.116,0.0
56477.0,STARLINK-5534,PAYLOAD,2024-03-09 13:15:01,14.98330119,0.0002947,70.0001,165.3183,267.8172,92.265,1.2503e-05,5.6e-07,0.0,0 STARLINK-5534,1 56477U 23064AF  24069.55209757  .00000056  00000-0  12503-4 0  9991,2 56477  70.0001 165.3183 0002947 267.8172  92.2650 14.98330119 46374,6950.193,96.107,574.106,570.009,0.0
56477.0,STARLINK-5534,PAYLOAD,2024-03-09 16:27:17,14.98329947,0.0002978,70.0001,164.9818,267.8933,92.1885,7.228e-06,-7e-08,0.0,0 STARLINK-5534,1 56477U 23064AF  24069.68561768 -.00000007  00000-0  72280-5 0  9994,2 56477  70.0001 164.9818 0002978 267.8933  92.1885 14.98329947 46391,6950.193,96.107,574.128,569.988,0.0
56477.0,STARLINK-5534,PAYLOAD,2024-03-10 10:04:46,14.98331872,0.0002846,70.0003,163.1304,264.9294,95.154,-8.7e-05,-1.131e-05,0.0,0 STARLINK-5534,1 56477U 23064AF  24070.41997839 -.00001131  00000-0 -87000-4 0  9994,2 56477  70.0003 163.1304 0002846 264.9294  95.1540 14.98331872 46500,6950.187,96.107,574.03,570.074,0.0
56477.0,STARLINK-5534,PAYLOAD,2024-03-10 16:29:18,14.98335298,0.000294,70.0001,162.4571,267.7309,92.3514,-8.2916e-05,-1.082e-05,0.0,0 STARLINK-5534,1 56477U 23064AF  24070.68701547 -.00001082  00000-0 -82916-4 0  9998,2 56477  70.0001 162.4571 0002940 267.7309  92.3514 14.98335298 46909,6950.177,96.107,574.085,569.998,0.0
56477.0,STARLINK-5534,PAYLOAD,2024-03-11 11:42:54,14.98329747,0.0002883,70.0003,160.4374,266.3763,93.7066,3.1089e-05,2.78e-06,0.0,0 STARLINK-5534,1 56477U 23064AF  24071.48813527  .00000278  00000-0  31089-4 0  9998,2 56477  70.0003 160.4374 0002883 266.3763  93.7066 14.98329747 46667,6950.194,96.107,574.062,570.055,0.0
56477.0,STARLINK-5534,PAYLOAD,2024-03-12 05:20:23,14.9833163,0.0002937,70.0002,158.5862,266.4277,93.6546,2.1722e-05,1.66e-06,0.0,0 STARLINK-5534,1 56477U 23064AF  24072.22249423  .00000166  00000-0  21722-4 0  9998,2 56477  70.0002 158.5862 0002937 266.4277  93.6546 14.98331630 47136,6950.188,96.107,574.094,570.012,0.0
56477.0,STARLINK-5534,PAYLOAD,2024-03-12 11:44:55,14.98330446,0.0002967,70.0003,157.9129,266.532,93.5499,6.1943e-06,-1.9e-07,0.0,0 STARLINK-5534,1 56477U 23064AF  24072.48953518 -.00000019  00000-0  61943-5 0  9991,2 56477  70.0003 157.9129 0002967 266.5320  93.5499 14.98330446 46813,6950.192,96.107,574.119,569.994,0.0
56477.0,STARLINK-5534,PAYLOAD,2024-03-13 05:22:24,14.98329598,0.0003015,70.0002,156.0617,267.0632,93.0182,1.0888e-05,3.7e-07,0.0,0 STARLINK-5534,1 56477U 23064AF  24073.22389508  .00000037  00000-0  10888-4 0  9996,2 56477  70.0002 156.0617 0003015 267.0632  93.0182 14.98329598 47283,6950.194,96.107,574.155,569.964,0.0
56477.0,STARLINK-5534,PAYLOAD,2024-03-13 11:46:56,14.98331972,0.0003285,69.9996,155.3883,271.329,88.7493,-7.0911e-06,-1.78e-06,0.0,0 STARLINK-5534,1 56477U 23064AF  24073.49093412 -.00000178  00000-0 -70911-5 0  9993,2 56477  69.9996 155.3883 0003285 271.3290  88.7493 14.98331972 46965,6950.187,96.107,574.335,569.769,0.0
56477.0,STARLINK-5534,PAYLOAD,2024-03-13 14:59:12,14.98334028,0.0003168,69.9999,155.0521,271.895,88.1846,1.5243e-05,8.9e-07,0.0,0 STARLINK-5534,1 56477U 23064AF  24073.62445205  .00000089  00000-0  15243-4 0  9994,2 56477  69.9999 155.0521 0003168 271.8950  88.1846 14.98334028 46985,6950.18,96.107,574.247,569.844,0.0
56477.0,STARLINK-5534,PAYLOAD,2024-03-14 05:24:25,14.983277,0.0003054,70.0002,153.5374,271.4435,88.6374,1.185e-06,-7.9e-07,0.0,0 STARLINK-5534,1 56477U 23064AF  24074.22529582 -.00000079  00000-0  11850-5 0  9993,2 56477  70.0002 153.5374 0003054 271.4435  88.6374 14.98327700 47431,6950.2,96.107,574.188,569.942,0.0
56477.0,STARLINK-5534,PAYLOAD,2024-03-14 07:00:33,14.98328616,0.0003026,70.0003,153.369,271.1371,88.9441,1.1625e-05,4.6e-07,0.0,0 STARLINK-5534,1 56477U 23064AF  24074.29205498  .00000046  00000-0  11625-4 0  9999,2 56477  70.0003 153.3690 0003026 271.1371  88.9441 14.98328616 47082,6950.197,96.107,574.165,569.959,0.0
56477.0,STARLINK-5534,PAYLOAD,2024-03-14 15:01:13,14.98333242,0.0002916,70.0004,152.5275,270.1836,89.8989,6.0507e-05,6.29e-06,0.0,0 STARLINK-5534,1 56477U 23064AF  24074.62585043  .00000629  00000-0  60507-4 0  9993,2 56477  70.0004 152.5275 0002916 270.1836  89.8989 14.98333242 47498,6950.183,96.107,574.075,570.021,0.0
56477.0,STARLINK-5534,PAYLOAD,2024-03-15 11:50:59,14.98318188,0.0002901,70.0005,150.3389,253.6311,106.4529,-0.00011809,-1.501e-05,0.0,0 STARLINK-5534,1 56477U 23064AF  24075.49374369 -.00001501  00000-0 -11809-3 0  9998,2 56477  70.0005 150.3389 0002901 253.6311 106.4529 14.98318188 47622,6950.229,96.108,574.111,570.078,0.0
56477.0,STARLINK-5534,PAYLOAD,2024-03-15 15:03:16,14.983082,0.0002614,70.0007,150.0018,268.0041,92.0819,-0.00023162,-2.854e-05,0.0,0 STARLINK-5534,1 56477U 23064AF  24075.62727631 -.00002854  00000-0 -23162-3 0  9994,2 56477  70.0007 150.0018 0002614 268.0041  92.0819 14.98308200 47649,6950.26,96.108,573.942,570.309,0.0
56477.0,STARLINK-5534,PAYLOAD,2024-03-16 05:28:28,14.98316401,0.0002899,70.0,148.488,266.9632,93.1196,-0.00013322,-1.682e-05,0.0,0 STARLINK-5534,1 56477U 23064AF  24076.22811329 -.00001682  00000-0 -13322-3 0  9994,2 56477  70.0000 148.4880 0002899 266.9632  93.1196 14.98316401 47730,6950.235,96.108,574.115,570.085,0.0
56477.0,STARLINK-5534,PAYLOAD,2024-03-16 13:29:09,14.98321236,0.0002858,69.9999,147.6461,264.3814,95.7019,-8.0112e-05,-1.048e-05,0.0,0 STARLINK-5534,1 56477U 23064AF  24076.56191106 -.00001048  00000-0 -80112-4 0  9993,2 56477  69.9999 147.6461 0002858 264.3814  95.7019 14.98321236 47429,6950.22,96.108,574.071,570.099,0.0
56477.0,STARLINK-5534,PAYLOAD,2024-03-16 15:05:17,14.98320764,0.0002786,70.0,147.4777,265.2459,94.8382,-6.6804e-05,-8.9e-06,0.0,0 STARLINK-5534,1 56477U 23064AF  24076.62867165 -.00000890  00000-0 -66804-4 0  9991,2 56477  70.0000 147.4777 0002786 265.2459  94.8382 14.98320764 47796,6950.221,96.108,574.023,570.15,0.0
56477.0,STARLINK-5534,PAYLOAD,2024-03-17 05:30:29,14.98325788,0.0003116,69.999,145.9621,268.5369,91.5433,4.8193e-05,4.82e-06,0.0,0 STARLINK-5534,1 56477U 23064AF  24077.22950718  .00000482  00000-0  48193-4 0  9991,2 56477  69.9990 145.9621 0003116 268.5369  91.5433 14.98325788 47888,6950.206,96.107,574.237,569.905,0.0
56477.0,STARLINK-5534,PAYLOAD,2024-03-17 11:55:01,14.98344607,0.000297,69.9992,145.2887,271.2248,88.857,-0.00017469,-2.178e-05,0.0,0 STARLINK-5534,1 56477U 23064AF  24077.49654230 -.00002178  00000-0 -17469-3 0  9997,2 56477  69.9992 145.2887 0002970 271.2248  88.8570 14.98344607 47928,6950.148,96.106,574.077,569.949,0.0
56477.0,STARLINK-5534,PAYLOAD,2024-03-17 13:31:08,14.98368742,0.0002891,69.9994,145.1205,277.4277,82.6553,-0.00053754,-6.507e-05,0.0,0 STARLINK-5534,1 56477U 23064AF  24077.56329586 -.00006507  00000-0 -53754-3 0  9995,2 56477  69.9994 145.1205 0002891 277.4277  82.6553 14.98368742 47575,6950.073,96.105,573.947,569.929,0.0
56477.0,STARLINK-5534,PAYLOAD,2024-03-18 05:32:29,14.98339396,0.0003098,69.9989,143.4371,268.7656,91.3148,0.00020499,2.354e-05,0.0,0 STARLINK-5534,1 56477U 23064AF  24078.23089535  .00002354  00000-0  20499-3 0  9991,2 56477  69.9989 143.4371 0003098 268.7656  91.3148 14.98339396 48030,6950.164,96.106,574.182,569.876,0.0
56477.0,STARLINK-5534,PAYLOAD,2024-03-18 11:57:01,14.98343869,0.0003011,69.999,142.7638,267.5434,92.538,0.00024211,2.798e-05,0.0,0 STARLINK-5534,1 56477U 23064AF  24078.49792945  .00002798  00000-0  24211-3 0  9993,2 56477  69.9990 142.7638 0003011 267.5434  92.5380 14.98343869 47711,6950.15,96.106,574.108,569.922,0.0
56477.0,STARLINK-5534,PAYLOAD,2024-03-19 11:59:02,14.98341606,0.0003102,69.9988,140.2391,268.3091,91.7713,-8.9021e-07,-1.04e-06,0.0,0 STARLINK-5534,1 56477U 23064AF  24079.49933107 -.00000104  00000-0 -89021-6 0  9995,2 56477  69.9988 140.2391 0003102 268.3091  91.7713 14.98341606 47860,6950.157,96.106,574.178,569.866,0.0
56477.0,STARLINK-5534,PAYLOAD,2024-03-19 13:35:10,14.98342508,0.0003081,69.9989,140.071,267.9887,92.092,9.5498e-06,2.1e-07,0.0,0 STARLINK-5534,1 56477U 23064AF  24079.56608961  .00000021  00000-0  95498-5 0  9990,2 56477  69.9989 140.0710 0003081 267.9887  92.0920 14.98342508 48236,6950.154,96.106,574.161,569.878,0.0
56477.0,STARLINK-5534,PAYLOAD,2024-03-20 10:24:55,14.9833617,0.000264,69.9998,137.8825,258.411,101.6752,-0.00016722,-2.088e-05,0.0,0 STARLINK-5534,1 56477U 23064AF  24080.43397274 -.00002088  00000-0 -16722-3 0  9998,2 56477  69.9998 137.8825 0002640 258.4110 101.6752 14.98336170 48363,6950.174,96.107,573.874,570.204,0.0
56477.0,STARLINK-5534,PAYLOAD,2024-03-20 13:37:11,14.98337955,0.0002714,69.9996,137.545,260.2769,99.8083,-0.00018616,-2.314e-05,0.0,0 STARLINK-5534,1 56477U 23064AF  24080.56749156 -.00002314  00000-0 -18616-3 0  9998,2 56477  69.9996 137.5450 0002714 260.2769  99.8083 14.98337955 48025,6950.168,96.106,573.92,570.147,0.0
56477.0,STARLINK-5534,PAYLOAD,2024-03-20 21:37:51,14.98335636,0.0002702,69.9997,136.703,271.6512,88.4338,-0.00014598,-1.835e-05,0.0,0 STARLINK-5534,1 56477U 23064AF  24080.90129116 -.00001835  00000-0 -14598-3 0  9996,2 56477  69.9997 136.7030 0002702 271.6512  88.4338 14.98335636 48076,6950.175,96.107,573.918,570.163,0.0
